HIMAWARI-8              
1 40267U 14060A   24207.89572630 -.00000278  00000+0  00000+0 0  9991
2 40267   0.0485 228.1310 0001088 287.5822 251.4727  1.00269303 35826
